{"type": "FeatureCollection", "features": [ {"type": "Feature", "properties": {"norad_id": 17070, "name": "POLAR BEAR", "group": "nnss", "lat": -35.954078724069845, "lon": -176.32908331120714, "alt_km": 1016.3862353343957, "timestamp": "2025-12-08T08:59:01.034376+00:00", "meta": {"OBJECT_NAME": "POLAR BEAR", "OBJECT_ID": "1986-088A", "EPOCH": "2025-12-07T23:15:48.332160", "MEAN_MOTION": 13.75249324, "ECCENTRICITY": 0.00406711, "INCLINATION": 89.6178, "RA_OF_ASC_NODE": 183.9646, "ARG_OF_PERICENTER": 133.1048, "MEAN_ANOMALY": 347.2075, "EPHEMERIS_TYPE": 0, "CLASSIFICATION_TYPE": "U", "NORAD_CAT_ID": 17070, "ELEMENT_SET_NO": 999, "REV_AT_EPOCH": 95913, "BSTAR": 0.0001492572, "MEAN_MOTION_DOT": 1.55e-06, "MEAN_MOTION_DDOT": 0}, "tle": {"line1": "1 17070U 86088A   25341.96930940  .00000155  00000+0  14926-3 0  9995", "line2": "2 17070  89.6178 183.9646 0040671 133.1048 347.2075 13.75249324959136"}}, "geometry": {"type": "Point", "coordinates": [-176.32908331120714, -35.954078724069845]}}, {"type": "Feature", "properties": {"norad_id": 18361, "name": "OSCAR 27", "group": "nnss", "lat": -21.066240857945942, "lon": 79.25321929037817, "alt_km": 1112.2420838718435, "timestamp": "2025-12-08T08:59:01.034387+00:00", "meta": {"OBJECT_NAME": "OSCAR 27", "OBJECT_ID": "1987-080A", "EPOCH": "2025-12-07T18:48:15.514560", "MEAN_MOTION": 13.44905199, "ECCENTRICITY": 0.01025825, "INCLINATION": 90.3742, "RA_OF_ASC_NODE": 79.0869, "ARG_OF_PERICENTER": 238.168, "MEAN_ANOMALY": 120.945, "EPHEMERIS_TYPE": 0, "CLASSIFICATION_TYPE": "U", "NORAD_CAT_ID": 18361, "ELEMENT_SET_NO": 999, "REV_AT_EPOCH": 87490, "BSTAR": 0.00030567383, "MEAN_MOTION_DOT": 1.92e-06, "MEAN_MOTION_DDOT": 0}, "tle": {"line1": "1 18361U 87080A   25341.78351290  .00000192  00000+0  30567-3 0  9997", "line2": "2 18361  90.3742  79.0869 0102582 238.1680 120.9450 13.44905199874905"}}, "geometry": {"type": "Point", "coordinates": [79.25321929037817, -21.066240857945942]}}, {"type": "Feature", "properties": {"norad_id": 18362, "name": "OSCAR 29", "group": "nnss", "lat": -1.6574413744360152, "lon": 79.57831848616205, "alt_km": 1106.6862076433817, "timestamp": "2025-12-08T08:59:01.034397+00:00", "meta": {"OBJECT_NAME": "OSCAR 29", "OBJECT_ID": "1987-080B", "EPOCH": "2025-12-07T21:06:08.560800", "MEAN_MOTION": 13.44447084, "ECCENTRICITY": 0.01037467, "INCLINATION": 90.3753, "RA_OF_ASC_NODE": 79.5489, "ARG_OF_PERICENTER": 261.3012, "MEAN_ANOMALY": 221.3412, "EPHEMERIS_TYPE": 0, "CLASSIFICATION_TYPE": "U", "NORAD_CAT_ID": 18362, "ELEMENT_SET_NO": 999, "REV_AT_EPOCH": 87444, "BSTAR": 0.00026711013, "MEAN_MOTION_DOT": 1.68e-06, "MEAN_MOTION_DDOT": 0}, "tle": {"line1": "1 18362U 87080B   25341.87926575  .00000168  00000+0  26711-3 0  9991", "line2": "2 18362  90.3753  79.5489 0103746 261.3012 221.3412 13.44447084874448"}}, "geometry": {"type": "Point", "coordinates": [79.57831848616205, -1.6574413744360152]}}, {"type": "Feature", "properties": {"norad_id": 19070, "name": "OSCAR 23", "group": "nnss", "lat": 33.24599181370576, "lon": 16.046503791187614, "alt_km": 1285.5041176294026, "timestamp": "2025-12-08T08:59:01.034407+00:00", "meta": {"OBJECT_NAME": "OSCAR 23", "OBJECT_ID": "1988-033A", "EPOCH": "2025-12-07T21:01:38.802720", "MEAN_MOTION": 13.27786162, "ECCENTRICITY": 0.01891195, "INCLINATION": 90.3216, "RA_OF_ASC_NODE": 16.2419, "ARG_OF_PERICENTER": 193.4597, "MEAN_ANOMALY": 340.7718, "EPHEMERIS_TYPE": 0, "CLASSIFICATION_TYPE": "U", "NORAD_CAT_ID": 19070, "ELEMENT_SET_NO": 999, "REV_AT_EPOCH": 82188, "BSTAR": 0.00023757017, "MEAN_MOTION_DOT": 1.26e-06, "MEAN_MOTION_DDOT": 0}, "tle": {"line1": "1 19070U 88033A   25341.87614355  .00000126  00000+0  23757-3 0  9998", "line2": "2 19070  90.3216  16.2419 0189119 193.4597 340.7718 13.27786162821880"}}, "geometry": {"type": "Point", "coordinates": [16.046503791187614, 33.24599181370576]}}, {"type": "Feature", "properties": {"norad_id": 19071, "name": "OSCAR 32", "group": "nnss", "lat": 39.41242322143721, "lon": -163.34606505710303, "alt_km": 1039.529269527493, "timestamp": "2025-12-08T08:59:01.034418+00:00", "meta": {"OBJECT_NAME": "OSCAR 32", "OBJECT_ID": "1988-033B", "EPOCH": "2025-12-07T20:29:02.184864", "MEAN_MOTION": 13.27953117, "ECCENTRICITY": 0.01879498, "INCLINATION": 90.3221, "RA_OF_ASC_NODE": 16.3728, "ARG_OF_PERICENTER": 180.3691, "MEAN_ANOMALY": 353.0592, "EPHEMERIS_TYPE": 0, "CLASSIFICATION_TYPE": "U", "NORAD_CAT_ID": 19071, "ELEMENT_SET_NO": 999, "REV_AT_EPOCH": 82200, "BSTAR": 0.00018701038, "MEAN_MOTION_DOT": 1.02e-06, "MEAN_MOTION_DDOT": 0}, "tle": {"line1": "1 19071U 88033B   25341.85349751  .00000102  00000+0  18701-3 0  9999", "line2": "2 19071  90.3221  16.3728 0187949 180.3691 353.0592 13.27953117822008"}}, "geometry": {"type": "Point", "coordinates": [-163.34606505710303, 39.41242322143721]}}, {"type": "Feature", "properties": {"norad_id": 19223, "name": "NOVA 2", "group": "nnss", "lat": 57.92016636558352, "lon": 78.29850739642669, "alt_km": 1147.5772338766837, "timestamp": "2025-12-08T08:59:01.034428+00:00", "meta": {"OBJECT_NAME": "NOVA 2", "OBJECT_ID": "1988-052A", "EPOCH": "2025-12-07T20:36:24.060384", "MEAN_MOTION": 13.22935083, "ECCENTRICITY": 0.00309905, "INCLINATION": 89.987, "RA_OF_ASC_NODE": 78.2784, "ARG_OF_PERICENTER": 30.1334, "MEAN_ANOMALY": 93.008, "EPHEMERIS_TYPE": 0, "CLASSIFICATION_TYPE": "U", "NORAD_CAT_ID": 19223, "ELEMENT_SET_NO": 999, "REV_AT_EPOCH": 80883, "BSTAR": 0.00029143842, "MEAN_MOTION_DOT": 1.31e-06, "MEAN_MOTION_DDOT": 0}, "tle": {"line1": "1 19223U 88052A   25341.85861181  .00000131  00000+0  29144-3 0  9990", "line2": "2 19223  89.9870  78.2784 0030990  30.1334  93.0080 13.22935083808834"}}, "geometry": {"type": "Point", "coordinates": [78.29850739642669, 57.92016636558352]}}, {"type": "Feature", "properties": {"norad_id": 19419, "name": "OSCAR 25", "group": "nnss", "lat": -4.101768890965657, "lon": -159.77268897910523, "alt_km": 1083.5995477561746, "timestamp": "2025-12-08T08:59:01.034439+00:00", "meta": {"OBJECT_NAME": "OSCAR 25", "OBJECT_ID": "1988-074A", "EPOCH": "2025-12-07T20:24:54.736128", "MEAN_MOTION": 13.42622016, "ECCENTRICITY": 0.00942814, "INCLINATION": 90.0351, "RA_OF_ASC_NODE": 20.228, "ARG_OF_PERICENTER": 260.0387, "MEAN_ANOMALY": 275.2869, "EPHEMERIS_TYPE": 0, "CLASSIFICATION_TYPE": "U", "NORAD_CAT_ID": 19419, "ELEMENT_SET_NO": 999, "REV_AT_EPOCH": 82574, "BSTAR": 0.00026278018, "MEAN_MOTION_DOT": 1.61e-06, "MEAN_MOTION_DDOT": 0}, "tle": {"line1": "1 19419U 88074A   25341.85063352  .00000161  00000+0  26278-3 0  9993", "line2": "2 19419  90.0351  20.2280 0094281 260.0387 275.2869 13.42622016825740"}}, "geometry": {"type": "Point", "coordinates": [-159.77268897910523, -4.101768890965657]}}, {"type": "Feature", "properties": {"norad_id": 19420, "name": "OSCAR 31", "group": "nnss", "lat": 69.42611091040713, "lon": 20.481294008264108, "alt_km": 1162.1434671345587, "timestamp": "2025-12-08T08:59:01.034449+00:00", "meta": {"OBJECT_NAME": "OSCAR 31", "OBJECT_ID": "1988-074B", "EPOCH": "2025-12-07T20:59:11.312736", "MEAN_MOTION": 13.42583475, "ECCENTRICITY": 0.00925501, "INCLINATION": 90.0367, "RA_OF_ASC_NODE": 20.5773, "ARG_OF_PERICENTER": 254.0731, "MEAN_ANOMALY": 280.6814, "EPHEMERIS_TYPE": 0, "CLASSIFICATION_TYPE": "U", "NORAD_CAT_ID": 19420, "ELEMENT_SET_NO": 999, "REV_AT_EPOCH": 82585, "BSTAR": 0.00020915369, "MEAN_MOTION_DOT": 1.3e-06, "MEAN_MOTION_DDOT": 0}, "tle": {"line1": "1 19420U 88074B   25341.87443649  .00000130  00000+0  20915-3 0  9996", "line2": "2 19420  90.0367  20.5773 0092550 254.0731 280.6814 13.42583475825859"}}, "geometry": {"type": "Point", "coordinates": [20.481294008264108, 69.42611091040713]}}]}